{
  "type": "FeatureCollection",
  "features": [
    {
      "type": "Feature",
      "properties": {
        "norad_id": 66625,
        "name": "STARLINK-35929",
        "group": "last-30-days",
        "lat": -51.94330825445729,
        "lon": 86.02662787994204,
        "alt_km": 429.3313388649558,
        "timestamp": "2025-12-18T13:51:48.379223+00:00",
        "meta_object_name": "STARLINK-35929",
        "meta_object_id": "2025-271J",
        "meta_epoch": "2025-12-18T06:27:35.132832",
        "meta_mean_motion": 15.48054242,
        "meta_eccentricity": 0.00033539,
        "meta_inclination": 53.1597,
        "meta_ra_of_asc_node": 160.7656,
        "meta_arg_of_pericenter": 64.9356,
        "meta_mean_anomaly": 295.2,
        "meta_ephemeris_type": 0,
        "meta_classification_type": "U",
        "meta_norad_cat_id": 66625,
        "meta_element_set_no": 999,
        "meta_rev_at_epoch": 506,
        "meta_bstar": -0.0023362783,
        "meta_mean_motion_dot": -0.00122881,
        "meta_mean_motion_ddot": 0,
        "tle_line1": "1 66625U 25271J   25352.26915663 -.00122881  00000+0 -23363-2 0  9999",
        "tle_line2": "2 66625  53.1597 160.7656 0003353  64.9356 295.2000 15.48054242  5069"
      },
      "geometry": {
        "type": "Point",
        "coordinates": [
          86.02662787994204,
          -51.94330825445729
        ]
      }
    },
    {
      "type": "Feature",
      "properties": {
        "norad_id": 66626,
        "name": "STARLINK-35902",
        "group": "last-30-days",
        "lat": -29.01201353507916,
        "lon": 3.986113708587367,
        "alt_km": 451.69969395534827,
        "timestamp": "2025-12-18T13:51:48.379233+00:00",
        "meta_object_name": "STARLINK-35902",
        "meta_object_id": "2025-271K",
        "meta_epoch": "2025-12-18T06:00:02.999808",
        "meta_mean_motion": 15.39579811,
        "meta_eccentricity": 0.00014104,
        "meta_inclination": 53.1602,
        "meta_ra_of_asc_node": 160.9619,
        "meta_arg_of_pericenter": 83.3718,
        "meta_mean_anomaly": 117.0381,
        "meta_ephemeris_type": 0,
        "meta_classification_type": "U",
        "meta_norad_cat_id": 66626,
        "meta_element_set_no": 999,
        "meta_rev_at_epoch": 512,
        "meta_bstar": 0.0010243982,
        "meta_mean_motion_dot": 0.0004074,
        "meta_mean_motion_ddot": 0,
        "tle_line1": "1 66626U 25271K   25352.25003472  .00040740  00000+0  10244-2 0  9990",
        "tle_line2": "2 66626  53.1602 160.9619 0001410  83.3718 117.0381 15.39579811  5121"
      },
      "geometry": {
        "type": "Point",
        "coordinates": [
          3.986113708587367,
          -29.01201353507916
        ]
      }
    },
    {
      "type": "Feature",
      "properties": {
        "norad_id": 66627,
        "name": "STARLINK-35904",
        "group": "last-30-days",
        "lat": -52.98412573627989,
        "lon": 63.212468303774216,
        "alt_km": 445.60679364532916,
        "timestamp": "2025-12-18T13:51:48.379244+00:00",
        "meta_object_name": "STARLINK-35904",
        "meta_object_id": "2025-271L",
        "meta_epoch": "2025-12-18T06:00:02.999808",
        "meta_mean_motion": 15.43561759,
        "meta_eccentricity": 0.00012511,
        "meta_inclination": 53.1603,
        "meta_ra_of_asc_node": 160.8713,
        "meta_arg_of_pericenter": 93.6865,
        "meta_mean_anomaly": 152.0152,
        "meta_ephemeris_type": 0,
        "meta_classification_type": "U",
        "meta_norad_cat_id": 66627,
        "meta_element_set_no": 999,
        "meta_rev_at_epoch": 496,
        "meta_bstar": -0.050446302,
        "meta_mean_motion_dot": -0.02046128,
        "meta_mean_motion_ddot": 0,
        "tle_line1": "1 66627U 25271L   25352.25003472 -.02046128  00000+0 -50446-1 0  9998",
        "tle_line2": "2 66627  53.1603 160.8713 0001251  93.6865 152.0152 15.43561759  4960"
      },
      "geometry": {
        "type": "Point",
        "coordinates": [
          63.212468303774216,
          -52.98412573627989
        ]
      }
    },
    {
      "type": "Feature",
      "properties": {
        "norad_id": 66628,
        "name": "STARLINK-35862",
        "group": "last-30-days",
        "lat": -49.14722115479707,
        "lon": 99.16858390876239,
        "alt_km": 423.7942420486779,
        "timestamp": "2025-12-18T13:51:48.379255+00:00",
        "meta_object_name": "STARLINK-35862",
        "meta_object_id": "2025-271M",
        "meta_epoch": "2025-12-18T06:25:42.557088",
        "meta_mean_motion": 15.49375302,
        "meta_eccentricity": 0.00020689,
        "meta_inclination": 53.1596,
        "meta_ra_of_asc_node": 160.7574,
        "meta_arg_of_pericenter": 52.7687,
        "meta_mean_anomaly": 307.3511,
        "meta_ephemeris_type": 0,
        "meta_classification_type": "U",
        "meta_norad_cat_id": 66628,
        "meta_element_set_no": 999,
        "meta_rev_at_epoch": 506,
        "meta_bstar": 0.0025571372,
        "meta_mean_motion_dot": 0.00144774,
        "meta_mean_motion_ddot": 0,
        "tle_line1": "1 66628U 25271M   25352.26785367  .00144774  00000+0  25571-2 0  9994",
        "tle_line2": "2 66628  53.1596 160.7574 0002068  52.7687 307.3511 15.49375302  5060"
      },
      "geometry": {
        "type": "Point",
        "coordinates": [
          99.16858390876239,
          -49.14722115479707
        ]
      }
    },
    {
      "type": "Feature",
      "properties": {
        "norad_id": 66629,
        "name": "STARLINK-35956",
        "group": "last-30-days",
        "lat": -47.02452931697522,
        "lon": 105.68411945810246,
        "alt_km": 423.60633707973193,
        "timestamp": "2025-12-18T13:51:48.379265+00:00",
        "meta_object_name": "STARLINK-35956",
        "meta_object_id": "2025-271N",
        "meta_epoch": "2025-12-17T22:40:33.711168",
        "meta_mean_motion": 15.50068802,
        "meta_eccentricity": 0.00077656,
        "meta_inclination": 53.1591,
        "meta_ra_of_asc_node": 162.2961,
        "meta_arg_of_pericenter": 69.9848,
        "meta_mean_anomaly": 290.1997,
        "meta_ephemeris_type": 0,
        "meta_classification_type": "U",
        "meta_norad_cat_id": 66629,
        "meta_element_set_no": 999,
        "meta_rev_at_epoch": 501,
        "meta_bstar": 0.0066522353,
        "meta_mean_motion_dot": 0.00399833,
        "meta_mean_motion_ddot": 0,
        "tle_line1": "1 66629U 25271N   25351.94483462  .00399833  00000+0  66522-2 0  9999",
        "tle_line2": "2 66629  53.1591 162.2961 0007765  69.9848 290.1997 15.50068802  5019"
      },
      "geometry": {
        "type": "Point",
        "coordinates": [
          105.68411945810246,
          -47.02452931697522
        ]
      }
    },
    {
      "type": "Feature",
      "properties": {
        "norad_id": 66630,
        "name": "STARLINK-35949",
        "group": "last-30-days",
        "lat": -47.78030570528863,
        "lon": 103.55081701223088,
        "alt_km": 424.81698570303706,
        "timestamp": "2025-12-18T13:51:48.379278+00:00",
        "meta_object_name": "STARLINK-35949",
        "meta_object_id": "2025-271P",
        "meta_epoch": "2025-12-18T06:24:45.768096",
        "meta_mean_motion": 15.490189,
        "meta_eccentricity": 0.0001458,
        "meta_inclination": 53.1598,
        "meta_ra_of_asc_node": 160.7516,
        "meta_arg_of_pericenter": 55.1565,
        "meta_mean_anomaly": 304.9581,
        "meta_ephemeris_type": 0,
        "meta_classification_type": "U",
        "meta_norad_cat_id": 66630,
        "meta_element_set_no": 999,
        "meta_rev_at_epoch": 506,
        "meta_bstar": 3.3096693e-05,
        "meta_mean_motion_dot": 1.375e-05,
        "meta_mean_motion_ddot": 0,
        "tle_line1": "1 66630U 25271P   25352.26719639  .00001375  00000+0  33097-4 0  9999",
        "tle_line2": "2 66630  53.1598 160.7516 0001458  55.1565 304.9581 15.49018900  5063"
      },
      "geometry": {
        "type": "Point",
        "coordinates": [
          103.55081701223088,
          -47.78030570528863
        ]
      }
    },
    {
      "type": "Feature",
      "properties": {
        "norad_id": 66631,
        "name": "STARLINK-35965",
        "group": "last-30-days",
        "lat": -46.6760743266565,
        "lon": 106.613656637731,
        "alt_km": 424.0604775807469,
        "timestamp": "2025-12-18T13:51:48.379289+00:00",
        "meta_object_name": "STARLINK-35965",
        "meta_object_id": "2025-271Q",
        "meta_epoch": "2025-12-18T06:24:13.538304",
        "meta_mean_motion": 15.49246739,
        "meta_eccentricity": 9.349e-05,
        "meta_inclination": 53.159,
        "meta_ra_of_asc_node": 160.7505,
        "meta_arg_of_pericenter": 140.9892,
        "meta_mean_anomaly": 219.1185,
        "meta_ephemeris_type": 0,
        "meta_classification_type": "U",
        "meta_norad_cat_id": 66631,
        "meta_element_set_no": 999,
        "meta_rev_at_epoch": 506,
        "meta_bstar": 0.00066041772,
        "meta_mean_motion_dot": 0.00036372,
        "meta_mean_motion_ddot": 0,
        "tle_line1": "1 66631U 25271Q   25352.26682336  .00036372  00000+0  66042-3 0  9993",
        "tle_line2": "2 66631  53.1590 160.7505 0000934 140.9892 219.1185 15.49246739  5068"
      },
      "geometry": {
        "type": "Point",
        "coordinates": [
          106.613656637731,
          -46.6760743266565
        ]
      }
    }
  ]
}